{"fetched_at":"2026-04-14T06:02:07Z","count":5195,"tles":[{"name":"ISS (ZARYA)","line1":"1 25544U 98067A   26103.16688155  .00004867  00000+0  96801-4 0  9994","line2":"2 25544  51.6321 261.8843 0006462 306.5385  53.5008 15.48891757561671","category":"ISS"},{"name":"SL-16 R/B","line1":"1 23343U 94074B   26103.01071956  .00000272  00000+0  43014-4 0  9996","line2":"2 23343  97.7056 132.4304 0008048 106.4961 282.5534 14.79447349692328","category":"Other"},{"name":"SL-16 R/B","line1":"1 25407U 98045B   26103.25392177  .00000198  00000+0  12414-3 0  9994","line2":"2 25407  71.0088 108.8865 0008768 319.0106  41.0357 14.16198113431990","category":"Other"},{"name":"ARIANE 40+ R/B","line1":"1 23561U 95021B   26103.20862392  .00000168  00000+0  67485-4 0  9996","line2":"2 23561  98.4442 174.2135 0007478  47.3027 331.2902 14.39797553624210","category":"Other"},{"name":"SL-16 R/B","line1":"1 23405U 94077B   26102.89798009  .00000086  00000+0  68570-4 0  9995","line2":"2 23405  70.9811 280.5201 0001175 167.8578 192.2574 14.15566907621076","category":"Other"},{"name":"SL-16 R/B","line1":"1 23705U 95058B   26103.25998502  .00000320  00000+0  18785-3 0  9992","line2":"2 23705  71.0188 107.6756 0010570  62.3945 297.8251 14.15501517572747","category":"Other"},{"name":"OKEAN-O","line1":"1 25860U 99039A   26103.12394131  .00000368  00000+0  54976-4 0  9998","line2":"2 25860  97.9374 162.6531 0001137 113.9816 246.1515 14.80390541439484","category":"Other"},{"name":"SL-16 R/B","line1":"1 25861U 99039B   26103.13902874  .00000346  00000+0  50550-4 0  9999","line2":"2 25861  97.9897 162.1715 0015677 141.7113 218.5216 14.81779589441968","category":"Other"},{"name":"CZ-4B R/B","line1":"1 25732U 99025C   26103.08650936  .00000030  00000+0  35407-4 0  9998","line2":"2 25732  98.6558 146.5419 0036074 245.1689 142.9092 14.18272199393047","category":"Other"},{"name":"COSMOS 2278","line1":"1 23087U 94023A   26103.04014592  .00000303  00000+0  18310-3 0  9996","line2":"2 23087  71.0504 103.2295 0009688 324.4752  35.5724 14.14378356649668","category":"Other"},{"name":"SL-16 R/B","line1":"1 23088U 94023B   26103.00039701 -.00000194  00000+0 -75658-4 0  9991","line2":"2 23088  71.0028 358.8329 0005634 256.3016 103.7480 14.15019692650945","category":"Other"},{"name":"SL-16 R/B","line1":"1 22803U 93059B   26103.27338842  .00000096  00000+0  71323-4 0  9994","line2":"2 22803  70.9896 298.1972 0016470 164.8192 195.3430 14.17239014684435","category":"Other"},{"name":"SL-16 R/B","line1":"1 24298U 96051B   26103.30170337  .00000056  00000+0  56821-4 0  9998","line2":"2 24298  70.7580 101.9782 0012697  89.5685 270.6889 14.12424955526536","category":"Other"},{"name":"DELTA 2 R/B","line1":"1 25876U 99041E   26103.12855414  .00000551  00000+0  12877-3 0  9991","line2":"2 25876  51.7599 163.7018 0502564  89.9847 275.8650 14.11914529367892","category":"Other"},{"name":"SL-16 R/B","line1":"1 25400U 98043G   26103.11153817  .00000026  00000+0  29747-4 0  9994","line2":"2 25400  98.8309  56.7315 0008770 275.7647  84.2532 14.26057874443893","category":"Other"},{"name":"ORBVIEW 2 (SEASTAR)","line1":"1 24883U 97037A   26103.26860962  .00000174  00000+0  76635-4 0  9994","line2":"2 24883  98.8625 268.5074 0001583 346.6930  13.4212 14.35519476513439","category":"Other"},{"name":"ARIANE 40 R/B","line1":"1 22830U 93061H   26103.19464515  .00000127  00000+0  62218-4 0  9993","line2":"2 22830  98.4858 171.3907 0010909 175.8880 184.2396 14.32879781699044","category":"Other"}]}