[{"OBJECT_NAME":"SL-16 R/B","OBJECT_ID":"1993-059B","EPOCH":"2026-04-13T06:33:40.759488","MEAN_MOTION":14.17239014,"ECCENTRICITY":0.00164702,"INCLINATION":70.9896,"RA_OF_ASC_NODE":298.1972,"ARG_OF_PERICENTER":164.8192,"MEAN_ANOMALY":195.343,"EPHEMERIS_TYPE":0,"CLASSIFICATION_TYPE":"U","NORAD_CAT_ID":22803,"ELEMENT_SET_NO":999,"REV_AT_EPOCH":68443,"BSTAR":7.132272e-5,"MEAN_MOTION_DOT":9.6e-7,"MEAN_MOTION_DDOT":0},{"OBJECT_NAME":"ARIANE 40 R/B","OBJECT_ID":"1993-061H","EPOCH":"2026-04-13T04:40:17.340960","MEAN_MOTION":14.32879781,"ECCENTRICITY":0.00109099,"INCLINATION":98.4858,"RA_OF_ASC_NODE":171.3907,"ARG_OF_PERICENTER":175.888,"MEAN_ANOMALY":184.2396,"EPHEMERIS_TYPE":0,"CLASSIFICATION_TYPE":"U","NORAD_CAT_ID":22830,"ELEMENT_SET_NO":999,"REV_AT_EPOCH":69904,"BSTAR":6.2218024e-5,"MEAN_MOTION_DOT":1.27e-6,"MEAN_MOTION_DDOT":0},{"OBJECT_NAME":"COSMOS 2278","OBJECT_ID":"1994-023A","EPOCH":"2026-04-13T00:57:48.607488","MEAN_MOTION":14.14378356,"ECCENTRICITY":0.00096887,"INCLINATION":71.0504,"RA_OF_ASC_NODE":103.2295,"ARG_OF_PERICENTER":324.4752,"MEAN_ANOMALY":35.5724,"EPHEMERIS_TYPE":0,"CLASSIFICATION_TYPE":"U","NORAD_CAT_ID":23087,"ELEMENT_SET_NO":999,"REV_AT_EPOCH":64966,"BSTAR":0.0001831023,"MEAN_MOTION_DOT":3.03e-6,"MEAN_MOTION_DDOT":0},{"OBJECT_NAME":"SL-16 R/B","OBJECT_ID":"1994-023B","EPOCH":"2026-04-13T00:00:34.301664","MEAN_MOTION":14.15019692,"ECCENTRICITY":0.0005634,"INCLINATION":71.0028,"RA_OF_ASC_NODE":358.8329,"ARG_OF_PERICENTER":256.3016,"MEAN_ANOMALY":103.748,"EPHEMERIS_TYPE":0,"CLASSIFICATION_TYPE":"U","NORAD_CAT_ID":23088,"ELEMENT_SET_NO":999,"REV_AT_EPOCH":65094,"BSTAR":-7.5657736e-5,"MEAN_MOTION_DOT":-1.94e-6,"MEAN_MOTION_DDOT":0},{"OBJECT_NAME":"SL-16 R/B","OBJECT_ID":"1994-074B","EPOCH":"2026-04-13T00:15:26.169984","MEAN_MOTION":14.79447349,"ECCENTRICITY":0.00080487,"INCLINATION":97.7056,"RA_OF_ASC_NODE":132.4304,"ARG_OF_PERICENTER":106.4961,"MEAN_ANOMALY":282.5534,"EPHEMERIS_TYPE":0,"CLASSIFICATION_TYPE":"U","NORAD_CAT_ID":23343,"ELEMENT_SET_NO":999,"REV_AT_EPOCH":69232,"BSTAR":4.3013891e-5,"MEAN_MOTION_DOT":2.72e-6,"MEAN_MOTION_DDOT":0},{"OBJECT_NAME":"SL-16 R/B","OBJECT_ID":"1994-077B","EPOCH":"2026-04-12T21:33:05.479776","MEAN_MOTION":14.15566907,"ECCENTRICITY":0.0001175,"INCLINATION":70.9811,"RA_OF_ASC_NODE":280.5201,"ARG_OF_PERICENTER":167.8578,"MEAN_ANOMALY":192.2574,"EPHEMERIS_TYPE":0,"CLASSIFICATION_TYPE":"U","NORAD_CAT_ID":23405,"ELEMENT_SET_NO":999,"REV_AT_EPOCH":62107,"BSTAR":6.857e-5,"MEAN_MOTION_DOT":8.6e-7,"MEAN_MOTION_DDOT":0},{"OBJECT_NAME":"ARIANE 40+ R/B","OBJECT_ID":"1995-021B","EPOCH":"2026-04-13T05:00:25.106688","MEAN_MOTION":14.39797553,"ECCENTRICITY":0.00074784,"INCLINATION":98.4442,"RA_OF_ASC_NODE":174.2135,"ARG_OF_PERICENTER":47.3027,"MEAN_ANOMALY":331.2902,"EPHEMERIS_TYPE":0,"CLASSIFICATION_TYPE":"U","NORAD_CAT_ID":23561,"ELEMENT_SET_NO":999,"REV_AT_EPOCH":62421,"BSTAR":6.7484985e-5,"MEAN_MOTION_DOT":1.68e-6,"MEAN_MOTION_DDOT":0},{"OBJECT_NAME":"SL-16 R/B","OBJECT_ID":"1995-058B","EPOCH":"2026-04-13T06:14:22.705728","MEAN_MOTION":14.15501517,"ECCENTRICITY":0.00105707,"INCLINATION":71.0188,"RA_OF_ASC_NODE":107.6756,"ARG_OF_PERICENTER":62.3945,"MEAN_ANOMALY":297.8251,"EPHEMERIS_TYPE":0,"CLASSIFICATION_TYPE":"U","NORAD_CAT_ID":23705,"ELEMENT_SET_NO":999,"REV_AT_EPOCH":57274,"BSTAR":0.0001878545,"MEAN_MOTION_DOT":3.2e-6,"MEAN_MOTION_DDOT":0},{"OBJECT_NAME":"SL-16 R/B","OBJECT_ID":"1996-051B","EPOCH":"2026-04-13T07:14:27.171168","MEAN_MOTION":14.12424955,"ECCENTRICITY":0.00126974,"INCLINATION":70.758,"RA_OF_ASC_NODE":101.9782,"ARG_OF_PERICENTER":89.5685,"MEAN_ANOMALY":270.6889,"EPHEMERIS_TYPE":0,"CLASSIFICATION_TYPE":"U","NORAD_CAT_ID":24298,"ELEMENT_SET_NO":999,"REV_AT_EPOCH":52653,"BSTAR":5.6820547e-5,"MEAN_MOTION_DOT":5.6e-7,"MEAN_MOTION_DDOT":0},{"OBJECT_NAME":"ORBVIEW 2 (SEASTAR)","OBJECT_ID":"1997-037A","EPOCH":"2026-04-13T06:26:47.871168","MEAN_MOTION":14.35519476,"ECCENTRICITY":0.00015837,"INCLINATION":98.8625,"RA_OF_ASC_NODE":268.5074,"ARG_OF_PERICENTER":346.693,"MEAN_ANOMALY":13.4212,"EPHEMERIS_TYPE":0,"CLASSIFICATION_TYPE":"U","NORAD_CAT_ID":24883,"ELEMENT_SET_NO":999,"REV_AT_EPOCH":51343,"BSTAR":7.6634595e-5,"MEAN_MOTION_DOT":1.74e-6,"MEAN_MOTION_DDOT":0},{"OBJECT_NAME":"SL-16 R/B","OBJECT_ID":"1998-043G","EPOCH":"2026-04-13T02:40:36.897888","MEAN_MOTION":14.26057874,"ECCENTRICITY":0.00087706,"INCLINATION":98.8309,"RA_OF_ASC_NODE":56.7315,"ARG_OF_PERICENTER":275.7647,"MEAN_ANOMALY":84.2532,"EPHEMERIS_TYPE":0,"CLASSIFICATION_TYPE":"U","NORAD_CAT_ID":25400,"ELEMENT_SET_NO":999,"REV_AT_EPOCH":44389,"BSTAR":2.9746563e-5,"MEAN_MOTION_DOT":2.6e-7,"MEAN_MOTION_DDOT":0},{"OBJECT_NAME":"SL-16 R/B","OBJECT_ID":"1998-045B","EPOCH":"2026-04-13T06:05:38.840928","MEAN_MOTION":14.16198113,"ECCENTRICITY":0.00087689,"INCLINATION":71.0088,"RA_OF_ASC_NODE":108.8865,"ARG_OF_PERICENTER":319.0106,"MEAN_ANOMALY":41.0357,"EPHEMERIS_TYPE":0,"CLASSIFICATION_TYPE":"U","NORAD_CAT_ID":25407,"ELEMENT_SET_NO":999,"REV_AT_EPOCH":43199,"BSTAR":0.00012414377,"MEAN_MOTION_DOT":1.98e-6,"MEAN_MOTION_DDOT":0},{"OBJECT_NAME":"ISS (ZARYA)","OBJECT_ID":"1998-067A","EPOCH":"2026-04-13T04:00:18.565920","MEAN_MOTION":15.48891757,"ECCENTRICITY":0.00064626,"INCLINATION":51.6321,"RA_OF_ASC_NODE":261.8843,"ARG_OF_PERICENTER":306.5385,"MEAN_ANOMALY":53.5008,"EPHEMERIS_TYPE":0,"CLASSIFICATION_TYPE":"U","NORAD_CAT_ID":25544,"ELEMENT_SET_NO":999,"REV_AT_EPOCH":56167,"BSTAR":9.6800567e-5,"MEAN_MOTION_DOT":4.867e-5,"MEAN_MOTION_DDOT":0},{"OBJECT_NAME":"CZ-4B R/B","OBJECT_ID":"1999-025C","EPOCH":"2026-04-13T02:04:34.408704","MEAN_MOTION":14.18272199,"ECCENTRICITY":0.00360746,"INCLINATION":98.6558,"RA_OF_ASC_NODE":146.5419,"ARG_OF_PERICENTER":245.1689,"MEAN_ANOMALY":142.9092,"EPHEMERIS_TYPE":0,"CLASSIFICATION_TYPE":"U","NORAD_CAT_ID":25732,"ELEMENT_SET_NO":999,"REV_AT_EPOCH":39304,"BSTAR":3.5406678e-5,"MEAN_MOTION_DOT":3.0e-7,"MEAN_MOTION_DDOT":0},{"OBJECT_NAME":"OKEAN-O","OBJECT_ID":"1999-039A","EPOCH":"2026-04-13T02:58:28.529184","MEAN_MOTION":14.80390541,"ECCENTRICITY":0.00011373,"INCLINATION":97.9374,"RA_OF_ASC_NODE":162.6531,"ARG_OF_PERICENTER":113.9816,"MEAN_ANOMALY":246.1515,"EPHEMERIS_TYPE":0,"CLASSIFICATION_TYPE":"U","NORAD_CAT_ID":25860,"ELEMENT_SET_NO":999,"REV_AT_EPOCH":43948,"BSTAR":5.4975823e-5,"MEAN_MOTION_DOT":3.68e-6,"MEAN_MOTION_DDOT":0},{"OBJECT_NAME":"SL-16 R/B","OBJECT_ID":"1999-039B","EPOCH":"2026-04-13T03:20:12.083136","MEAN_MOTION":14.81779589,"ECCENTRICITY":0.00156778,"INCLINATION":97.9897,"RA_OF_ASC_NODE":162.1715,"ARG_OF_PERICENTER":141.7113,"MEAN_ANOMALY":218.5216,"EPHEMERIS_TYPE":0,"CLASSIFICATION_TYPE":"U","NORAD_CAT_ID":25861,"ELEMENT_SET_NO":999,"REV_AT_EPOCH":44196,"BSTAR":5.0550371e-5,"MEAN_MOTION_DOT":3.46e-6,"MEAN_MOTION_DDOT":0},{"OBJECT_NAME":"DELTA 2 R/B","OBJECT_ID":"1999-041E","EPOCH":"2026-04-13T03:05:07.077696","MEAN_MOTION":14.11914529,"ECCENTRICITY":0.05025642,"INCLINATION":51.7599,"RA_OF_ASC_NODE":163.7018,"ARG_OF_PERICENTER":89.9847,"MEAN_ANOMALY":275.865,"EPHEMERIS_TYPE":0,"CLASSIFICATION_TYPE":"U","NORAD_CAT_ID":25876,"ELEMENT_SET_NO":999,"REV_AT_EPOCH":36789,"BSTAR":0.00012877015,"MEAN_MOTION_DOT":5.51e-6,"MEAN_MOTION_DDOT":0}]
